GLOBALSTAR M069         
1 31573U 07020C   26181.52836709 -.00000068  00000+0  23115-3 0  9995
2 31573  52.0002 214.3659 0002028 177.4741 335.0354 12.23471685880438
GLOBALSTAR M072         
1 31574U 07020D   26181.96396794 -.00000070  00000+0  19887-3 0  9993
2 31574  51.9938  63.5681 0001554   5.7366   7.4521 11.91658424876627
GLOBALSTAR M066         
1 32265U 07048C   26181.01624100 -.00000096  00000+0 -16235-4 0  9996
2 32265  51.9600  21.0842 0005648  71.4931  94.1146 12.30387598861800
GLOBALSTAR M079         
1 37188U 10054A   26181.98287662 -.00000085  00000+0  10318-3 0  9992
2 37188  52.0045  66.6743 0000990  53.1819 319.8244 12.62266319724295
GLOBALSTAR M074         
1 37189U 10054B   26181.61192584 -.00000081  00000+0  12638-3 0  9994
2 37189  52.0027  67.0661 0000765  71.8333 294.8987 12.62261924724853
GLOBALSTAR M076         
1 37190U 10054C   26181.95652384 -.00000091  00000+0  69233-4 0  9997
2 37190  52.0036  66.2217 0000996  67.6378 305.6567 12.62261929724615
GLOBALSTAR M077         
1 37191U 10054D   26182.15150801 -.00000094  00000+0 -29194-3 0  9993
2 37191  51.9934 143.8512 0002505 198.2303 175.3685 11.67547961722773
GLOBALSTAR M075         
1 37192U 10054E   26182.04871705 -.00000095  00000+0  47660-4 0  9994
2 37192  51.9944 107.9874 0000489  41.3429 331.3029 12.62267517723693
GLOBALSTAR M073         
1 37193U 10054F   26182.00313095 -.00000086  00000+0  98291-4 0  9990
2 37193  52.0077  22.2375 0001100  74.2416  89.5626 12.62266791725678
GLOBALSTAR M083         
1 37739U 11033A   26182.17598272 -.00000084  00000+0  11114-3 0  9990
2 37739  51.9878 329.9208 0000947  88.4578  82.5589 12.62263755694715
GLOBALSTAR M088         
1 37740U 11033B   26181.50275225 -.00000073  00000+0  17394-3 0  9992
2 37740  52.0197 238.4325 0000394 146.6106 322.1682 12.62269094690172
GLOBALSTAR M091         
1 37741U 11033C   26181.35607752 -.00000096  00000+0  42868-4 0  9990
2 37741  51.9967 201.8237 0000035 324.1113 138.6403 12.62264150690949
GLOBALSTAR M085         
1 37742U 11033D   26182.12970670 -.00000120  00000+0 -92027-4 0  9990
2 37742  52.0104 150.7712 0000438   7.8020  72.2028 12.62264200691554
GLOBALSTAR M081         
1 37743U 11033E   26182.22066867 -.00000116  00000+0 -68899-4 0  9991
2 37743  51.9935 152.9147 0000341  37.7447 335.5485 12.62265314691716
GLOBALSTAR M089         
1 37744U 11033F   26182.10162921 -.00000101  00000+0  18071-4 0  9997
2 37744  51.9924 107.4334 0000549  79.5393 293.5420 12.62267420692546
GLOBALSTAR M084         
1 38040U 11080A   26182.14967382 -.00000101  00000+0  14392-4 0  9999
2 38040  52.0025 334.7757 0001075 108.7325  62.6964 12.62267665670522
GLOBALSTAR M080         
1 38041U 11080B   26182.20015294 -.00000101  00000+0  15018-4 0  9999
2 38041  52.0083 336.3451 0000422  78.2417  92.7738 12.62265498670653
GLOBALSTAR M082         
1 38042U 11080C   26182.05722264 -.00000084  00000+0  10967-3 0  9992
2 38042  52.0084 292.2833 0000414 109.3744  61.6045 12.62263796671341
GLOBALSTAR M092         
1 38043U 11080D   26182.10553896 -.00000087  00000+0  94041-4 0  9991
2 38043  52.0100  22.5334 0000849  83.5552  66.2715 12.62267281669809
GLOBALSTAR M090         
1 38044U 11080E   26181.68258670 -.00000081  00000+0  12435-3 0  9996
2 38044  52.0130 287.3838 0000552 105.3746  41.4336 12.62252712671419
GLOBALSTAR M086         
1 38045U 11080F   26182.02612969 -.00000067  00000+0  20498-3 0  9993
2 38045  51.9904 286.2451 0001678  90.3413  80.5003 12.62287401671407
GLOBALSTAR M097         
1 39072U 13005A   26181.46586323 -.00000092  00000+0  68022-4 0  9998
2 39072  52.0014 202.9153 0000134  64.2931 295.7949 12.62271297618582
GLOBALSTAR M093         
1 39073U 13005B   26181.99332146 -.00000100  00000+0  21278-4 0  9991
2 39073  52.0072 194.6607 0000301  34.0294 326.0592 12.62266197618609
GLOBALSTAR M094         
1 39074U 13005C   26182.07236647 -.00000116  00000+0 -66033-4 0  9997
2 39074  51.9954 108.5226 0000742  35.5951 324.4965 12.62268406620225
GLOBALSTAR M096         
1 39075U 13005D   26182.08588148 -.00000123  00000+0 -10917-3 0  9992
2 39075  52.0047 157.2936 0000376  10.7569 349.3305 12.62265670619146
GLOBALSTAR M078         
1 39076U 13005E   26181.50466921 -.00000012  00000+0  51406-3 0  9997
2 39076  51.9861 243.0563 0000539 287.1640  72.9167 12.62260150617691
GLOBALSTAR M095         
1 39077U 13005F   26181.53138189 -.00000064  00000+0  21929-3 0  9997
2 39077  52.0067 240.5978 0000074  14.7808 345.3061 12.62263818617557
GLOBALSTAR M087         
1 52888U 22064A   26181.94047803 -.00000098  00000+0  31333-4 0  9992
2 52888  52.0010  20.5816 0000923  65.1584 294.9379 12.62269262192874
